STARLINK-1008           
1 44714U 19074B   24329.90251595 -.00002285  00000+0 -13461-3 0  9993
2 44714  53.0529 135.5746 0001377 110.5796 249.5340 15.06382590278119
STARLINK-1009           
1 44715U 19074C   24329.91667824  .01278644  00000+0  24231-1 0  9999
2 44715  53.0554 133.2320 0001296  62.0015 166.1039 15.44830447278149
STARLINK-1010           
1 44716U 19074D   24329.84352608  .00001093  00000+0  92226-4 0  9996
2 44716  53.0536 135.8371 0001515  90.6663 269.4499 15.06402015278088
STARLINK-1011           
1 44717U 19074E   24329.90802085  .00002763  00000+0  20423-3 0  9997
2 44717  53.0528 155.5489 0001490  89.0810 271.0350 15.06412472277832
STARLINK-1012           
1 44718U 19074F   24329.94671595 -.00008667  00000+0 -56293-3 0  9997
2 44718  53.0548 135.3731 0001358  92.8420 267.2725 15.06445934278117
STARLINK-1013           
1 44719U 19074G   24329.95407837 -.00004566  00000+0 -28749-3 0  9994
2 44719  53.0541 135.3376 0001411  97.4970 262.6180 15.06440475278116
STARLINK-1014           
1 44720U 19074H   24329.94877779  .00016224  00000+0  78586-3 0  9997
2 44720  53.0509 125.3662 0002707 175.1430 184.9591 15.18700756278265
STARLINK-1015           
1 44721U 19074J   24329.92834005  .00002147  00000+0  16294-3 0  9998
2 44721  53.0532 135.8045 0001316 106.5524 253.5610 15.06403438278102
STARLINK-1017           
1 44723U 19074L   24329.91354652  .00002952  00000+0  21691-3 0  9995
2 44723  53.0545 135.5249 0001437  87.3489 272.7665 15.06412448278116
STARLINK-1019           
1 44724U 19074M   24329.94304866  .00003690  00000+0  26648-3 0  9998
2 44724  53.0526 135.3938 0000687 105.2590 254.8475 15.06398311278110